NORAD_CAT_ID,OBJECT_NAME,OBJECT_TYPE,EPOCH,MEAN_MOTION,ECCENTRICITY,INCLINATION,RA_OF_ASC_NODE,ARG_OF_PERICENTER,MEAN_ANOMALY,BSTAR,MEAN_MOTION_DOT,MEAN_MOTION_DDOT,TLE_LINE0,TLE_LINE1,TLE_LINE2,SEMIMAJOR_AXIS,PERIOD,APOGEE,PERIGEE,DECAYED
54203.0,STARLINK-5247,PAYLOAD,2023-10-16 11:30:32,15.08863675,0.0001378,53.2161,322.8971,81.1249,278.9899,0.001295,0.00020395,0.0,0 STARLINK-5247,1 54203U 22141AY  23289.47953830  .00020395  00000-0  12950-2 0  9995,2 54203  53.2161 322.8971 0001378  81.1249 278.9899 15.08863675 53874,6917.808,95.436,540.626,538.72,0.0
54203.0,STARLINK-5247,PAYLOAD,2023-10-17 06:35:09,15.08854035,0.0001139,53.2158,319.3288,83.8359,276.2763,0.0011908,0.00018722,0.0,0 STARLINK-5247,1 54203U 22141AY  23290.27441724  .00018722  00000-0  11908-2 0  9992,2 54203  53.2158 319.3288 0001139  83.8359 276.2763 15.08854035 54229,6917.837,95.437,540.49,538.915,0.0
54203.0,STARLINK-5247,PAYLOAD,2023-10-17 08:10:32,15.088591,0.0001403,53.216,319.0317,87.4586,272.6567,0.0014339,0.00022618,0.0,0 STARLINK-5247,1 54203U 22141AY  23290.34065686  .00022618  00000-0  14339-2 0  9999,2 54203  53.2160 319.0317 0001403  87.4586 272.6567 15.08859100 54004,6917.822,95.436,540.658,538.716,0.0
54203.0,STARLINK-5247,PAYLOAD,2023-10-17 19:18:14,15.08845353,0.0001553,53.2159,316.9493,82.6234,277.4934,0.0016838,0.00026615,0.0,0 STARLINK-5247,1 54203U 22141AY  23290.80433867  .00026615  00000-0  16838-2 0  9997,2 54203  53.2159 316.9493 0001553  82.6234 277.4934 15.08845353 54305,6917.864,95.437,540.803,538.655,0.0
54203.0,STARLINK-5247,PAYLOAD,2023-10-18 11:12:06,15.08847946,0.0001061,53.2174,313.9783,70.3756,289.7351,0.0012062,0.00018965,0.0,0 STARLINK-5247,1 54203U 22141AY  23291.46673674  .00018965  00000-0  12062-2 0  9996,2 54203  53.2174 313.9783 0001061  70.3756 289.7351 15.08847946 54408,6917.856,95.437,540.455,538.987,0.0
54203.0,STARLINK-5247,PAYLOAD,2023-10-18 19:09:01,15.08853109,0.000165,53.2172,312.4872,97.8345,262.2834,0.00087547,0.00013678,0.0,0 STARLINK-5247,1 54203U 22141AY  23291.79793855  .00013678  00000-0  87547-3 0  9993,2 54203  53.2172 312.4872 0001650  97.8345 262.2834 15.08853109 54456,6917.84,95.437,540.847,538.564,0.0
54203.0,STARLINK-5247,PAYLOAD,2023-10-19 07:52:06,15.08856922,0.0001619,53.2171,310.11,94.4077,265.71,0.00072815,0.00011325,0.0,0 STARLINK-5247,1 54203U 22141AY  23292.32785642  .00011325  00000-0  72815-3 0  9997,2 54203  53.2171 310.1100 0001619  94.4077 265.7100 15.08856922 54533,6917.829,95.436,540.814,538.574,0.0
54203.0,STARLINK-5247,PAYLOAD,2023-10-19 11:02:52,15.0885519,0.0001781,53.2179,309.5109,104.5821,255.5369,0.00076863,0.00011971,0.0,0 STARLINK-5247,1 54203U 22141AY  23292.46033521  .00011971  00000-0  76863-3 0  9998,2 54203  53.2179 309.5109 0001781 104.5821 255.5369 15.08855190 54329,6917.834,95.437,540.931,538.467,0.0
54203.0,STARLINK-5247,PAYLOAD,2023-10-20 10:53:40,15.08840765,0.0001701,53.2177,305.0521,100.9037,259.2147,0.00017641,2.521e-05,0.0,0 STARLINK-5247,1 54203U 22141AY  23293.45393955  .00002521  00000-0  17641-3 0  9998,2 54203  53.2177 305.0521 0001701 100.9037 259.2147 15.08840765 54706,6917.878,95.438,540.92,538.566,0.0
54203.0,STARLINK-5247,PAYLOAD,2023-10-21 01:12:09,15.08833212,0.0001817,53.2178,302.3754,106.8136,253.3056,2.4541e-05,1.02e-06,0.0,0 STARLINK-5247,1 54203U 22141AY  23294.05010491  .00000102  00000-0  24541-4 0  9997,2 54203  53.2178 302.3754 0001817 106.8136 253.3056 15.08833212 54790,6917.901,95.438,541.023,538.509,0.0
54203.0,STARLINK-5247,PAYLOAD,2023-10-21 07:33:41,15.0883758,0.0001499,53.2172,301.1901,100.5422,259.5739,-1.3956e-05,-5.1e-06,0.0,0 STARLINK-5247,1 54203U 22141AY  23294.31506430 -.00000510  00000-0 -13956-4 0  9992,2 54203  53.2172 301.1901 0001499 100.5422 259.5739 15.08837580 54608,6917.888,95.438,540.79,538.716,0.0
54203.0,STARLINK-5247,PAYLOAD,2023-10-21 17:06:00,15.08838761,0.0001644,53.218,299.4064,86.3798,273.7382,0.00012587,1.716e-05,0.0,0 STARLINK-5247,1 54203U 22141AY  23294.71250614  .00001716  00000-0  12587-3 0  9991,2 54203  53.2180 299.4064 0001644  86.3798 273.7382 15.08838761 54665,6917.884,95.438,540.886,538.612,0.0
54203.0,STARLINK-5247,PAYLOAD,2023-10-22 04:13:42,15.08844611,0.0001457,53.217,297.3239,96.6805,263.4353,0.00024814,3.664e-05,0.0,0 STARLINK-5247,1 54203U 22141AY  23295.17618507  .00003664  00000-0  24814-3 0  9991,2 54203  53.2170 297.3239 0001457  96.6805 263.4353 15.08844611 54968,6917.866,95.437,540.739,538.723,0.0
54203.0,STARLINK-5247,PAYLOAD,2023-10-22 07:24:28,15.08850839,0.000157,53.2177,296.7306,103.0573,257.0595,0.0004679,7.169e-05,0.0,0 STARLINK-5247,1 54203U 22141AY  23295.30866408  .00007169  00000-0  46790-3 0  9992,2 54203  53.2177 296.7306 0001570 103.0573 257.0595 15.08850839 54757,6917.847,95.437,540.798,538.626,0.0
54203.0,STARLINK-5247,PAYLOAD,2023-10-22 16:56:47,15.08846077,0.0001549,53.2181,294.9453,89.6409,270.476,0.00027033,4.018e-05,0.0,0 STARLINK-5247,1 54203U 22141AY  23295.70610427  .00004018  00000-0  27033-3 0  9993,2 54203  53.2181 294.9453 0001549  89.6409 270.4760 15.08846077 54817,6917.862,95.437,540.798,538.655,0.0
54203.0,STARLINK-5247,PAYLOAD,2023-10-23 04:04:29,15.08837025,0.0002483,53.2184,292.8663,87.7755,272.3521,1.1189e-05,-1.1e-06,0.0,0 STARLINK-5247,1 54203U 22141AY  23296.16979142 -.00000110  00000-0  11189-4 0  9992,2 54203  53.2184 292.8663 0002483  87.7755 272.3521 15.08837025 55114,6917.889,95.438,541.472,538.037,0.0
54203.0,STARLINK-5247,PAYLOAD,2023-10-23 16:47:34,15.08837871,0.000163,53.2172,290.4859,88.2707,271.8472,7.9639e-05,9.8e-06,0.0,0 STARLINK-5247,1 54203U 22141AY  23296.69971052  .00000980  00000-0  79639-4 0  9990,2 54203  53.2172 290.4859 0001630  88.2707 271.8472 15.08837871 54968,6917.887,95.438,540.88,538.624,0.0
54203.0,STARLINK-5247,PAYLOAD,2023-10-24 08:41:27,15.08821476,0.0001735,53.2171,287.5112,80.2026,279.9162,-0.0001326,-2.397e-05,0.0,0 STARLINK-5247,1 54203U 22141AY  23297.36212151 -.00002397  00000-0 -13260-3 0  9996,2 54203  53.2171 287.5112 0001735  80.2026 279.9162 15.08821476 55294,6917.937,95.439,541.002,538.602,0.0
54203.0,STARLINK-5247,PAYLOAD,2023-10-25 08:32:15,15.08833741,0.0001703,53.2161,283.0496,86.7402,273.3785,0.00037164,5.631e-05,0.0,0 STARLINK-5247,1 54203U 22141AY  23298.35573015  .00005631  00000-0  37164-3 0  9996,2 54203  53.2161 283.0496 0001703  86.7402 273.3785 15.08833741 55447,6917.9,95.438,540.943,538.586,0.0
54203.0,STARLINK-5247,PAYLOAD,2023-10-26 08:23:01,15.08878975,0.0001822,53.2153,278.5893,89.52,270.6001,0.0013383,0.00021098,0.0,0 STARLINK-5247,1 54203U 22141AY  23299.34932004  .00021098  00000-0  13383-2 0  9994,2 54203  53.2153 278.5893 0001822  89.5200 270.6001 15.08878975 55592,6917.761,95.435,540.887,538.366,0.0
54203.0,STARLINK-5247,PAYLOAD,2023-10-26 16:19:56,15.08870143,0.0002136,53.2171,277.1017,94.387,265.7366,0.00075986,0.00011836,0.0,0 STARLINK-5247,1 54203U 22141AY  23299.68051847  .00011836  00000-0  75986-3 0  9995,2 54203  53.2171 277.1017 0002136  94.3870 265.7366 15.08870143 55645,6917.788,95.436,541.131,538.176,0.0
54203.0,STARLINK-5247,PAYLOAD,2023-10-27 05:03:00,15.08907177,0.0001771,53.2156,274.7236,90.4541,269.6654,0.0024975,0.00039758,0.0,0 STARLINK-5247,1 54203U 22141AY  23300.21042044  .00039758  00000-0  24975-2 0  9990,2 54203  53.2156 274.7236 0001771  90.4541 269.6654 15.08907177 55720,6917.675,95.433,540.765,538.315,0.0
54203.0,STARLINK-5247,PAYLOAD,2023-10-27 08:13:46,15.08916286,0.0001761,53.2159,274.1289,90.5814,269.538,0.0024473,0.00038958,0.0,0 STARLINK-5247,1 54203U 22141AY  23300.34289417  .00038958  00000-0  24473-2 0  9995,2 54203  53.2159 274.1289 0001761  90.5814 269.5380 15.08916286 55511,6917.647,95.433,540.73,538.294,0.0
54203.0,STARLINK-5247,PAYLOAD,2023-10-27 17:46:04,15.08865214,0.0001451,53.2161,272.344,121.7385,238.3749,0.00023571,3.468e-05,0.0,0 STARLINK-5247,1 54203U 22141AY  23300.74033345  .00003468  00000-0  23571-3 0  9993,2 54203  53.2161 272.3440 0001451 121.7385 238.3749 15.08865214 55808,6917.803,95.436,540.672,538.665,0.0
54203.0,STARLINK-5247,PAYLOAD,2023-10-28 08:04:33,15.0882777,0.000184,53.216,269.6687,110.2343,249.8847,0.00163,0.0002574,0.0,0 STARLINK-5247,1 54203U 22141AY  23301.33650402  .00025740  00000-0  16300-2 0  9996,2 54203  53.2160 269.6687 0001840 110.2343 249.8847 15.08827770 55898,6917.918,95.438,541.056,538.51,0.0
54203.0,STARLINK-5247,PAYLOAD,2023-10-28 22:23:02,15.08838439,0.0001926,53.2164,266.9882,108.8463,251.2738,0.0015756,0.00024876,0.0,0 STARLINK-5247,1 54203U 22141AY  23301.93267251  .00024876  00000-0  15756-2 0  9991,2 54203  53.2164 266.9882 0001926 108.8463 251.2738 15.08838439 55755,6917.885,95.438,541.083,538.418,0.0
54203.0,STARLINK-5247,PAYLOAD,2023-10-29 04:44:35,15.08846154,0.0001836,53.2166,265.8017,107.0567,253.0627,0.0011984,0.00018839,0.0,0 STARLINK-5247,1 54203U 22141AY  23302.19763238  .00018839  00000-0  11984-2 0  9997,2 54203  53.2166 265.8017 0001836 107.0567 253.0627 15.08846154 56022,6917.862,95.437,540.997,538.456,0.0
54203.0,STARLINK-5247,PAYLOAD,2023-10-29 14:16:54,15.08842873,0.0001737,53.2178,264.0143,97.8613,262.2576,0.0008742,0.00013653,0.0,0 STARLINK-5247,1 54203U 22141AY  23302.59507368  .00013653  00000-0  87420-3 0  9999,2 54203  53.2178 264.0143 0001737  97.8613 262.2576 15.08842873 55853,6917.872,95.437,540.938,538.535,0.0
54203.0,STARLINK-5247,PAYLOAD,2023-10-30 04:35:22,15.08842792,0.0001995,53.2186,261.3423,110.2788,249.8419,0.00055312,8.526e-05,0.0,0 STARLINK-5247,1 54203U 22141AY  23303.19123657  .00008526  00000-0  55312-3 0  9999,2 54203  53.2186 261.3423 0001995 110.2788 249.8419 15.08842792 56175,6917.872,95.437,541.117,538.357,0.0
54203.0,STARLINK-5247,PAYLOAD,2023-10-30 14:07:41,15.08839196,0.0001697,53.2176,259.5582,101.8417,258.2766,0.00034517,5.21e-05,0.0,0 STARLINK-5247,1 54203U 22141AY  23303.58867775  .00005210  00000-0  34517-3 0  9999,2 54203  53.2176 259.5582 0001697 101.8417 258.2766 15.08839196 56233,6917.883,95.438,540.922,538.574,0.0
